HST                     
1 20580U 90037B   26183.59378340  .00007699  00000+0  24258-3 0  9997
2 20580  28.4736 335.2665 0001605 334.9544  25.0974 15.30932590790933
POLAR                   
1 23802U 96013A   26181.90122648  .00000200  00000+0  00000+0 0  9994
2 23802  79.8715 226.8903 6484175 208.6086  90.7324  1.29846086145031
SWAS                    
1 25560U 98071A   26183.52028291  .00002473  00000+0  15954-3 0  9994
2 25560  69.8938 187.9752 0008370 244.7551 115.2746 15.09694194499587
CXO                     
1 25867U 99040B   26185.24501744  .00000765  00000+0  00000+0 0  9995
2 25867  56.3727 116.2458 7810468 310.0498   0.5720  0.37797064 17382
XMM-NEWTON              
1 25989U 99066A   26181.31376484  .00000075  00000+0  00000+0 0  9997
2 25989  64.4187 282.8185 4670815  64.6474   0.0796  0.50127122 23075
TERRA                   
1 25994U 99068A   26183.64950439  .00000470  00000+0  10468-3 0  9993
2 25994  97.9448 232.5822 0002747 148.4312   7.6199 14.61115707411864
CLUSTER II-FM7 (SAMBA)  
1 26410U 00041A   26183.75752675  .00012787  00000+0  00000+0 0  9995
2 26410 149.8840  53.4423 9072869 270.8480 359.6360  0.44834504 20376
CLUSTER II-FM8 (TANGO)  
1 26464U 00045B   26181.94601251  .00015784  00000+0  00000+0 0  9990
2 26464 150.1096  54.2616 9074787 271.4997   2.3331  0.44420098 20376
ODIN                    
1 26702U 01007A   26183.37126976  .00265335  00000+0  12669-2 0  9995
2 26702  97.3774 225.3490 0005920 136.8623 223.3110 15.82090808391798
TIMED                   
1 26998U 01055B   26183.46307471  .00001103  00000+0  10361-3 0  9995
2 26998  74.0661 204.2601 0001860 314.0771  46.0260 14.95323192333100
CORIOLIS                
1 27640U 03001A   26183.48808194  .00000126  00000+0  79571-4 0  9996
2 27640  98.7127 190.1393 0014262 164.1493 196.0133 14.19949056216396
SORCE                   
1 27651U 03004A   26183.41436498  .00003096  00000+0  23161-3 0  9990
2 27651  39.9888 174.7952 0017065 165.6393 194.4889 15.03784070274196
MOST                    
1 27843U 03031D   26183.48737100  .00000079  00000+0  56273-4 0  9993
2 27843  98.7044 190.9996 0009336 202.1140 157.9636 14.21325656192882
SCISAT 1                
1 27858U 03036A   26183.62231588  .00000749  00000+0  10021-3 0  9993
2 27858  73.9295 140.6752 0007991 210.4938 149.5775 14.81465996233734
SWIFT                   
1 28485U 04047A   26183.44537700  .00058281  00000+0  45553-3 0  9990
2 28485  20.5530  67.0742 0000987 157.2561 202.7929 15.69838768189269
HINODE (SOLAR-B)        
1 29479U 06041A   26183.51495064  .00000853  00000+0  15481-3 0  9993
2 29479  98.0543 199.4413 0016190 236.7494 123.2161 14.68644562 57122
SHIJIAN-6 02A (SJ-6 02A)
1 29505U 06046A   26183.59225520  .00008918  00000+0  45291-3 0  9996
2 29505  97.6344 224.7756 0004652  90.4732 269.7034 15.17124684 74608
SHIJIAN-6 02B (SJ-6 02B)
1 29506U 06046B   26183.60831696  .00001472  00000+0  11858-3 0  9996
2 29506  97.7148 212.5718 0014961  16.3310 343.8393 15.01414825 73050
FGRST (GLAST)           
1 33053U 08029A   26183.15735134  .00003505  00000+0  12692-3 0  9997
2 33053  25.5819 100.5283 0008390 140.8430 219.2716 15.24014089998126
SDO                     
1 36395U 10005A   26183.25044652 -.00000081  00000+0  00000+0 0  9998
2 36395  34.6806  86.1151 0001495  53.7669 128.3250  1.00270409 60215
CRYOSAT 2               
1 36508U 10013A   26183.58852921  .00000136  00000+0  33104-4 0  9991
2 36508  92.0362 281.0456 0002192  96.2066 263.9392 14.51895232860317
X-SAT                   
1 37389U 11015C   26183.60047438  .00000026  00000+0  28771-4 0  9996
2 37389  98.3516 159.8903 0013002 301.4832  58.5077 14.25210524789873
GCOM-W1 (SHIZUKU)       
1 38337U 12025A   26183.57322426  .00000547  00000+0  13134-3 0  9995
2 38337  98.2022 123.8961 0001552  67.8391 105.1377 14.57139035751270
NUSTAR                  
1 38358U 12031A   26183.58335648  .00010224  00000+0  57478-3 0  9998
2 38358   6.0263 278.6505 0007970 331.7213  96.4717 15.08943770  1304
NEOSSAT                 
1 39089U 13009D   26183.47084296  .00000177  00000+0  75822-4 0  9994
2 39089  98.4183   3.1404 0010637 194.8866 165.2009 14.35831929698938
BRITE-AUSTRIA           
1 39091U 13009F   26183.46186329  .00000204  00000+0  83939-4 0  9995
2 39091  98.4001   2.5199 0009951 187.8418 172.2614 14.36548283699240
IRIS                    
1 39197U 13033A   26183.51850022  .00001178  00000+0  14096-3 0  9991
2 39197  97.9322  22.7472 0022947 268.9364  90.9222 14.85915926702653
HISAKI (SPRINT-A)       
1 39253U 13049A   26183.59514802  .00000084  00000+0  25847-4 0  9994
2 39253  29.7180 141.6729 0136877 141.7696 219.2672 13.55545850633515
CASSIOPE                
1 39265U 13055A   26183.63749713  .00043900 -36501-6  47379-3 0  9990
2 39265  80.9129  47.9390 0286746  10.4439 350.2574 15.26608083670022
STSAT-3                 
1 39422U 13066G   26183.62690447  .00001709  00000+0  13198-3 0  9995
2 39422  97.6217 153.2668 0009550 357.0189   3.0978 15.02836603686525
SWARM B                 
1 39451U 13067A   26183.58361299  .00004134  00000+0  14724-3 0  9994
2 39451  87.7453 337.6381 0002818  80.1837 279.9730 15.28647737685595
